CCSDS_OMM_VERS = 2.0
CREATION_DATE  = 
ORIGINATOR     = 

OBJECT_NAME    = HULIANWANG DIGUI 18D
OBJECT_ID      = 2026-007D
CENTER_NAME    = EARTH
REF_FRAME      = TEME
TIME_SYSTEM    = UTC
MEAN_ELEMENT_THEORY = SGP/SGP4

EPOCH          = 2026-01-14T01:07:59.697408
MEAN_MOTION    = 13.92379883
ECCENTRICITY   = .0008833
INCLINATION    = 50.0064
RA_OF_ASC_NODE = 292.8662
ARG_OF_PERICENTER = 266.5929
MEAN_ANOMALY   = 93.3960

EPHEMERIS_TYPE = 0
CLASSIFICATION_TYPE = U
NORAD_CAT_ID   = 67438
ELEMENT_SET_NO = 999
REV_AT_EPOCH   = 6
BSTAR          = .14444E-4
MEAN_MOTION_DOT = -.128E-5
MEAN_MOTION_DDOT = 0

CCSDS_OMM_VERS = 2.0
CREATION_DATE  = 
ORIGINATOR     = 

OBJECT_NAME    = HULIANWANG DIGUI 18E
OBJECT_ID      = 2026-007E
CENTER_NAME    = EARTH
REF_FRAME      = TEME
TIME_SYSTEM    = UTC
MEAN_ELEMENT_THEORY = SGP/SGP4

EPOCH          = 2026-01-16T09:58:25.247136
MEAN_MOTION    = 13.92169320
ECCENTRICITY   = .00067796
INCLINATION    = 50.0058
RA_OF_ASC_NODE = 283.3997
ARG_OF_PERICENTER = 272.2362
MEAN_ANOMALY   = 87.7761

EPHEMERIS_TYPE = 0
CLASSIFICATION_TYPE = U
NORAD_CAT_ID   = 67439
ELEMENT_SET_NO = 999
REV_AT_EPOCH   = 39
BSTAR          = .90396705E-4
MEAN_MOTION_DOT = -.3E-6
MEAN_MOTION_DDOT = 0

CCSDS_OMM_VERS = 2.0
CREATION_DATE  = 
ORIGINATOR     = 

OBJECT_NAME    = HULIANWANG DIGUI 18F
OBJECT_ID      = 2026-007F
CENTER_NAME    = EARTH
REF_FRAME      = TEME
TIME_SYSTEM    = UTC
MEAN_ELEMENT_THEORY = SGP/SGP4

EPOCH          = 2026-01-16T09:58:02.989632
MEAN_MOTION    = 13.92298276
ECCENTRICITY   = .0007615
INCLINATION    = 50.0131
RA_OF_ASC_NODE = 283.4072
ARG_OF_PERICENTER = 281.4224
MEAN_ANOMALY   = 78.5820

EPHEMERIS_TYPE = 0
CLASSIFICATION_TYPE = U
NORAD_CAT_ID   = 67440
ELEMENT_SET_NO = 999
REV_AT_EPOCH   = 39
BSTAR          = .24068023E-4
MEAN_MOTION_DOT = -.116E-5
MEAN_MOTION_DDOT = 0

CCSDS_OMM_VERS = 2.0
CREATION_DATE  = 
ORIGINATOR     = 

OBJECT_NAME    = HULIANWANG DIGUI 18G
OBJECT_ID      = 2026-007G
CENTER_NAME    = EARTH
REF_FRAME      = TEME
TIME_SYSTEM    = UTC
MEAN_ELEMENT_THEORY = SGP/SGP4

EPOCH          = 2026-01-16T11:41:19.538880
MEAN_MOTION    = 13.92327465
ECCENTRICITY   = .00063674
INCLINATION    = 50.0112
RA_OF_ASC_NODE = 283.1175
ARG_OF_PERICENTER = 277.5773
MEAN_ANOMALY   = 82.4403

EPHEMERIS_TYPE = 0
CLASSIFICATION_TYPE = U
NORAD_CAT_ID   = 67441
ELEMENT_SET_NO = 999
REV_AT_EPOCH   = 40
BSTAR          = .24523607E-4
MEAN_MOTION_DOT = -.115E-5
MEAN_MOTION_DDOT = 0

CCSDS_OMM_VERS = 2.0
CREATION_DATE  = 
ORIGINATOR     = 

OBJECT_NAME    = HULIANWANG DIGUI 18H
OBJECT_ID      = 2026-007H
CENTER_NAME    = EARTH
REF_FRAME      = TEME
TIME_SYSTEM    = UTC
MEAN_ELEMENT_THEORY = SGP/SGP4

EPOCH          = 2026-01-16T13:24:30.072096
MEAN_MOTION    = 13.92384327
ECCENTRICITY   = .00074999
INCLINATION    = 50.0113
RA_OF_ASC_NODE = 282.8292
ARG_OF_PERICENTER = 288.2627
MEAN_ANOMALY   = 71.7457

EPHEMERIS_TYPE = 0
CLASSIFICATION_TYPE = U
NORAD_CAT_ID   = 67442
ELEMENT_SET_NO = 999
REV_AT_EPOCH   = 41
BSTAR          = -.50920805E-4
MEAN_MOTION_DOT = -.213E-5
MEAN_MOTION_DDOT = 0

CCSDS_OMM_VERS = 2.0
CREATION_DATE  = 
ORIGINATOR     = 

OBJECT_NAME    = HULIANWANG DIGUI 18J
OBJECT_ID      = 2026-007J
CENTER_NAME    = EARTH
REF_FRAME      = TEME
TIME_SYSTEM    = UTC
MEAN_ELEMENT_THEORY = SGP/SGP4

EPOCH          = 2026-01-16T09:57:22.070592
MEAN_MOTION    = 13.92552193
ECCENTRICITY   = .00060938
INCLINATION    = 50.0102
RA_OF_ASC_NODE = 283.4018
ARG_OF_PERICENTER = 286.3127
MEAN_ANOMALY   = 73.7102

EPHEMERIS_TYPE = 0
CLASSIFICATION_TYPE = U
NORAD_CAT_ID   = 67443
ELEMENT_SET_NO = 999
REV_AT_EPOCH   = 39
BSTAR          = .24262468E-4
MEAN_MOTION_DOT = -.116E-5
MEAN_MOTION_DDOT = 0

CCSDS_OMM_VERS = 2.0
CREATION_DATE  = 
ORIGINATOR     = 

OBJECT_NAME    = CZ-8A R/B
OBJECT_ID      = 2026-007K
CENTER_NAME    = EARTH
REF_FRAME      = TEME
TIME_SYSTEM    = UTC
MEAN_ELEMENT_THEORY = SGP/SGP4

EPOCH          = 2026-01-16T14:05:03.921216
MEAN_MOTION    = 14.13545085
ECCENTRICITY   = .0092122
INCLINATION    = 50.0119
RA_OF_ASC_NODE = 282.3178
ARG_OF_PERICENTER = 93.2209
MEAN_ANOMALY   = 267.9244

EPHEMERIS_TYPE = 0
CLASSIFICATION_TYPE = U
NORAD_CAT_ID   = 67444
ELEMENT_SET_NO = 999
REV_AT_EPOCH   = 41
BSTAR          = -.47974775E-4
MEAN_MOTION_DOT = -.251E-5
MEAN_MOTION_DDOT = 0

CCSDS_OMM_VERS = 2.0
CREATION_DATE  = 
ORIGINATOR     = 

OBJECT_NAME    = ALSAT-3A
OBJECT_ID      = 2026-009A
CENTER_NAME    = EARTH
REF_FRAME      = TEME
TIME_SYSTEM    = UTC
MEAN_ELEMENT_THEORY = SGP/SGP4

EPOCH          = 2026-01-16T14:38:17.957184
MEAN_MOTION    = 15.02872654
ECCENTRICITY   = .00989604
INCLINATION    = 97.1816
RA_OF_ASC_NODE = 90.9666
ARG_OF_PERICENTER = 217.9528
MEAN_ANOMALY   = 141.4697

EPHEMERIS_TYPE = 0
CLASSIFICATION_TYPE = U
NORAD_CAT_ID   = 67474
ELEMENT_SET_NO = 999
REV_AT_EPOCH   = 22
BSTAR          = .22436148E-3
MEAN_MOTION_DOT = .3285E-4
MEAN_MOTION_DDOT = 0

CCSDS_OMM_VERS = 2.0
CREATION_DATE  = 
ORIGINATOR     = 

OBJECT_NAME    = CZ-2C R/B
OBJECT_ID      = 2026-009B
CENTER_NAME    = EARTH
REF_FRAME      = TEME
TIME_SYSTEM    = UTC
MEAN_ELEMENT_THEORY = SGP/SGP4

EPOCH          = 2026-01-16T14:10:50.085408
MEAN_MOTION    = 15.23376367
ECCENTRICITY   = .00114122
INCLINATION    = 97.4729
RA_OF_ASC_NODE = 91.3608
ARG_OF_PERICENTER = 263.7319
MEAN_ANOMALY   = 96.2618

EPHEMERIS_TYPE = 0
CLASSIFICATION_TYPE = U
NORAD_CAT_ID   = 67475
ELEMENT_SET_NO = 999
REV_AT_EPOCH   = 22
BSTAR          = .22079092E-3
MEAN_MOTION_DOT = .5186E-4
MEAN_MOTION_DDOT = 0

