HULIANWANG DIGUI 18D    
1 67438U 26007D   26014.04721872 -.00000128  00000+0  14444-4 0  9999
2 67438  50.0064 292.8662 0008833 266.5929  93.3960 13.92379883    60
HULIANWANG DIGUI 18E    
1 67439U 26007E   26016.41556999 -.00000030  00000+0  90397-4 0  9992
2 67439  50.0058 283.3997 0006779 272.2362  87.7761 13.92169320   397
HULIANWANG DIGUI 18F    
1 67440U 26007F   26016.41531238 -.00000116  00000+0  24068-4 0  9990
2 67440  50.0131 283.4072 0007615 281.4224  78.5820 13.92298276   392
HULIANWANG DIGUI 18G    
1 67441U 26007G   26016.48703170 -.00000115  00000+0  24524-4 0  9990
2 67441  50.0112 283.1175 0006367 277.5773  82.4403 13.92327465   407
HULIANWANG DIGUI 18H    
1 67442U 26007H   26016.55868139 -.00000213  00000+0 -50921-4 0  9996
2 67442  50.0113 282.8292 0007499 288.2627  71.7457 13.92384327   410
HULIANWANG DIGUI 18J    
1 67443U 26007J   26016.41483878 -.00000116  00000+0  24262-4 0  9995
2 67443  50.0102 283.4018 0006093 286.3127  73.7102 13.92552193   399
CZ-8A R/B               
1 67444U 26007K   26016.58685094 -.00000251  00000+0 -47975-4 0  9995
2 67444  50.0119 282.3178 0092122  93.2209 267.9244 14.13545085   410
ALSAT-3A                
1 67474U 26009A   26016.60993006  .00003285  00000+0  22436-3 0  9990
2 67474  97.1816  90.9666 0098960 217.9528 141.4697 15.02872654   220
CZ-2C R/B               
1 67475U 26009B   26016.59085747  .00005186  00000+0  22079-3 0  9998
2 67475  97.4729  91.3608 0011412 263.7319  96.2618 15.23376367   225
